CCSDS_OMM_VERS = 2.0
CREATION_DATE  = 
ORIGINATOR     = 

OBJECT_NAME    = STARLINK-35438
OBJECT_ID      = 2025-253AE
CENTER_NAME    = EARTH
REF_FRAME      = TEME
TIME_SYSTEM    = UTC
MEAN_ELEMENT_THEORY = SGP/SGP4

EPOCH          = 2025-11-23T12:00:02.000160
MEAN_MOTION    = 15.66597385
ECCENTRICITY   = .0001538
INCLINATION    = 42.9999
RA_OF_ASC_NODE = 97.3820
ARG_OF_PERICENTER = 282.0407
MEAN_ANOMALY   = 110.6209

EPHEMERIS_TYPE = 0
CLASSIFICATION_TYPE = U
NORAD_CAT_ID   = 66347
ELEMENT_SET_NO = 999
REV_AT_EPOCH   = 383
BSTAR          = -.21486E-1
MEAN_MOTION_DOT = -.2032737E-1
MEAN_MOTION_DDOT = 0

CCSDS_OMM_VERS = 2.0
CREATION_DATE  = 
ORIGINATOR     = 

OBJECT_NAME    = STARLINK-35849
OBJECT_ID      = 2025-254A
CENTER_NAME    = EARTH
REF_FRAME      = TEME
TIME_SYSTEM    = UTC
MEAN_ELEMENT_THEORY = SGP/SGP4

EPOCH          = 2025-11-23T12:00:02.000160
MEAN_MOTION    = 15.74221146
ECCENTRICITY   = .0001216
INCLINATION    = 53.1590
RA_OF_ASC_NODE = 10.4575
ARG_OF_PERICENTER = 93.5909
MEAN_ANOMALY   = 181.4073

EPHEMERIS_TYPE = 0
CLASSIFICATION_TYPE = U
NORAD_CAT_ID   = 66348
ELEMENT_SET_NO = 999
REV_AT_EPOCH   = 383
BSTAR          = -.76525E-3
MEAN_MOTION_DOT = -.111389E-2
MEAN_MOTION_DDOT = 0

CCSDS_OMM_VERS = 2.0
CREATION_DATE  = 
ORIGINATOR     = 

OBJECT_NAME    = STARLINK-35848
OBJECT_ID      = 2025-254B
CENTER_NAME    = EARTH
REF_FRAME      = TEME
TIME_SYSTEM    = UTC
MEAN_ELEMENT_THEORY = SGP/SGP4

EPOCH          = 2025-11-23T12:00:02.000160
MEAN_MOTION    = 15.74228196
ECCENTRICITY   = .0001284
INCLINATION    = 53.1590
RA_OF_ASC_NODE = 10.4533
ARG_OF_PERICENTER = 84.1622
MEAN_ANOMALY   = 192.7506

EPHEMERIS_TYPE = 0
CLASSIFICATION_TYPE = U
NORAD_CAT_ID   = 66349
ELEMENT_SET_NO = 999
REV_AT_EPOCH   = 383
BSTAR          = -.62074E-3
MEAN_MOTION_DOT = -.90721E-3
MEAN_MOTION_DDOT = 0

CCSDS_OMM_VERS = 2.0
CREATION_DATE  = 
ORIGINATOR     = 

OBJECT_NAME    = STARLINK-35829
OBJECT_ID      = 2025-254C
CENTER_NAME    = EARTH
REF_FRAME      = TEME
TIME_SYSTEM    = UTC
MEAN_ELEMENT_THEORY = SGP/SGP4

EPOCH          = 2025-11-23T12:00:02.000160
MEAN_MOTION    = 15.74186705
ECCENTRICITY   = .0001127
INCLINATION    = 53.1590
RA_OF_ASC_NODE = 10.4489
ARG_OF_PERICENTER = 87.9226
MEAN_ANOMALY   = 190.9155

EPHEMERIS_TYPE = 0
CLASSIFICATION_TYPE = U
NORAD_CAT_ID   = 66350
ELEMENT_SET_NO = 999
REV_AT_EPOCH   = 383
BSTAR          = -.10994E-3
MEAN_MOTION_DOT = -.16696E-3
MEAN_MOTION_DDOT = 0

CCSDS_OMM_VERS = 2.0
CREATION_DATE  = 
ORIGINATOR     = 

OBJECT_NAME    = STARLINK-35828
OBJECT_ID      = 2025-254D
CENTER_NAME    = EARTH
REF_FRAME      = TEME
TIME_SYSTEM    = UTC
MEAN_ELEMENT_THEORY = SGP/SGP4

EPOCH          = 2025-11-23T12:00:02.000160
MEAN_MOTION    = 15.74215728
ECCENTRICITY   = .0001103
INCLINATION    = 53.1590
RA_OF_ASC_NODE = 10.4447
ARG_OF_PERICENTER = 83.9574
MEAN_ANOMALY   = 196.7924

EPHEMERIS_TYPE = 0
CLASSIFICATION_TYPE = U
NORAD_CAT_ID   = 66351
ELEMENT_SET_NO = 999
REV_AT_EPOCH   = 380
BSTAR          = -.71148E-3
MEAN_MOTION_DOT = -.103675E-2
MEAN_MOTION_DDOT = 0

CCSDS_OMM_VERS = 2.0
CREATION_DATE  = 
ORIGINATOR     = 

OBJECT_NAME    = STARLINK-35850
OBJECT_ID      = 2025-254E
CENTER_NAME    = EARTH
REF_FRAME      = TEME
TIME_SYSTEM    = UTC
MEAN_ELEMENT_THEORY = SGP/SGP4

EPOCH          = 2025-11-23T12:00:02.000160
MEAN_MOTION    = 15.74217560
ECCENTRICITY   = .0001097
INCLINATION    = 53.1591
RA_OF_ASC_NODE = 10.4405
ARG_OF_PERICENTER = 105.1074
MEAN_ANOMALY   = 177.5582

EPHEMERIS_TYPE = 0
CLASSIFICATION_TYPE = U
NORAD_CAT_ID   = 66352
ELEMENT_SET_NO = 999
REV_AT_EPOCH   = 378
BSTAR          = -.64969E-3
MEAN_MOTION_DOT = -.94831E-3
MEAN_MOTION_DDOT = 0

CCSDS_OMM_VERS = 2.0
CREATION_DATE  = 
ORIGINATOR     = 

OBJECT_NAME    = STARLINK-35869
OBJECT_ID      = 2025-254F
CENTER_NAME    = EARTH
REF_FRAME      = TEME
TIME_SYSTEM    = UTC
MEAN_ELEMENT_THEORY = SGP/SGP4

EPOCH          = 2025-11-23T12:00:02.000160
MEAN_MOTION    = 15.74233419
ECCENTRICITY   = .0000983
INCLINATION    = 53.1589
RA_OF_ASC_NODE = 10.4366
ARG_OF_PERICENTER = 80.3533
MEAN_ANOMALY   = 204.2250

EPHEMERIS_TYPE = 0
CLASSIFICATION_TYPE = U
NORAD_CAT_ID   = 66353
ELEMENT_SET_NO = 999
REV_AT_EPOCH   = 383
BSTAR          = -.86227E-3
MEAN_MOTION_DOT = -.125289E-2
MEAN_MOTION_DDOT = 0

CCSDS_OMM_VERS = 2.0
CREATION_DATE  = 
ORIGINATOR     = 

OBJECT_NAME    = STARLINK-35895
OBJECT_ID      = 2025-254G
CENTER_NAME    = EARTH
REF_FRAME      = TEME
TIME_SYSTEM    = UTC
MEAN_ELEMENT_THEORY = SGP/SGP4

EPOCH          = 2025-11-23T12:00:02.000160
MEAN_MOTION    = 15.74229289
ECCENTRICITY   = .0001111
INCLINATION    = 53.1587
RA_OF_ASC_NODE = 10.4320
ARG_OF_PERICENTER = 81.8914
MEAN_ANOMALY   = 204.6044

EPHEMERIS_TYPE = 0
CLASSIFICATION_TYPE = U
NORAD_CAT_ID   = 66354
ELEMENT_SET_NO = 999
REV_AT_EPOCH   = 383
BSTAR          = -.87725E-3
MEAN_MOTION_DOT = -.127403E-2
MEAN_MOTION_DDOT = 0

CCSDS_OMM_VERS = 2.0
CREATION_DATE  = 
ORIGINATOR     = 

OBJECT_NAME    = STARLINK-35861
OBJECT_ID      = 2025-254H
CENTER_NAME    = EARTH
REF_FRAME      = TEME
TIME_SYSTEM    = UTC
MEAN_ELEMENT_THEORY = SGP/SGP4

EPOCH          = 2025-11-23T12:00:02.000160
MEAN_MOTION    = 15.74215876
ECCENTRICITY   = .0001097
INCLINATION    = 53.1588
RA_OF_ASC_NODE = 10.4285
ARG_OF_PERICENTER = 93.3057
MEAN_ANOMALY   = 195.1115

EPHEMERIS_TYPE = 0
CLASSIFICATION_TYPE = U
NORAD_CAT_ID   = 66355
ELEMENT_SET_NO = 999
REV_AT_EPOCH   = 383
BSTAR          = -.66236E-3
MEAN_MOTION_DOT = -.9664E-3
MEAN_MOTION_DDOT = 0

CCSDS_OMM_VERS = 2.0
CREATION_DATE  = 
ORIGINATOR     = 

OBJECT_NAME    = STARLINK-35851
OBJECT_ID      = 2025-254J
CENTER_NAME    = EARTH
REF_FRAME      = TEME
TIME_SYSTEM    = UTC
MEAN_ELEMENT_THEORY = SGP/SGP4

EPOCH          = 2025-11-23T12:00:02.000160
MEAN_MOTION    = 15.74218758
ECCENTRICITY   = .0001003
INCLINATION    = 53.1588
RA_OF_ASC_NODE = 10.4242
ARG_OF_PERICENTER = 84.9012
MEAN_ANOMALY   = 205.4351

EPHEMERIS_TYPE = 0
CLASSIFICATION_TYPE = U
NORAD_CAT_ID   = 66356
ELEMENT_SET_NO = 999
REV_AT_EPOCH   = 383
BSTAR          = -.71565E-3
MEAN_MOTION_DOT = -.104283E-2
MEAN_MOTION_DDOT = 0

CCSDS_OMM_VERS = 2.0
CREATION_DATE  = 
ORIGINATOR     = 

OBJECT_NAME    = STARLINK-35817
OBJECT_ID      = 2025-254K
CENTER_NAME    = EARTH
REF_FRAME      = TEME
TIME_SYSTEM    = UTC
MEAN_ELEMENT_THEORY = SGP/SGP4

EPOCH          = 2025-11-23T12:00:02.000160
MEAN_MOTION    = 15.74222529
ECCENTRICITY   = .0001172
INCLINATION    = 53.1586
RA_OF_ASC_NODE = 10.4202
ARG_OF_PERICENTER = 85.2901
MEAN_ANOMALY   = 206.9583

EPHEMERIS_TYPE = 0
CLASSIFICATION_TYPE = U
NORAD_CAT_ID   = 66357
ELEMENT_SET_NO = 999
REV_AT_EPOCH   = 383
BSTAR          = -.65171E-3
MEAN_MOTION_DOT = -.95141E-3
MEAN_MOTION_DDOT = 0

CCSDS_OMM_VERS = 2.0
CREATION_DATE  = 
ORIGINATOR     = 

OBJECT_NAME    = STARLINK-35807
OBJECT_ID      = 2025-254L
CENTER_NAME    = EARTH
REF_FRAME      = TEME
TIME_SYSTEM    = UTC
MEAN_ELEMENT_THEORY = SGP/SGP4

EPOCH          = 2025-11-23T12:00:02.000160
MEAN_MOTION    = 15.74229741
ECCENTRICITY   = .0001134
INCLINATION    = 53.1589
RA_OF_ASC_NODE = 10.4160
ARG_OF_PERICENTER = 82.9075
MEAN_ANOMALY   = 211.2571

EPHEMERIS_TYPE = 0
CLASSIFICATION_TYPE = U
NORAD_CAT_ID   = 66358
ELEMENT_SET_NO = 999
REV_AT_EPOCH   = 383
BSTAR          = -.86415E-3
MEAN_MOTION_DOT = -.125541E-2
MEAN_MOTION_DDOT = 0

