STARLINK-35438          
1 66347U 25253AE  25327.50002315 -.02032737  00000+0 -21486-1 0  9995
2 66347  42.9999  97.3820 0001538 282.0407 110.6209 15.66597385  3837
STARLINK-35849          
1 66348U 25254A   25327.50002315 -.00111389  00000+0 -76525-3 0  9992
2 66348  53.1590  10.4575 0001216  93.5909 181.4073 15.74221146  3830
STARLINK-35848          
1 66349U 25254B   25327.50002315 -.00090721  00000+0 -62074-3 0  9993
2 66349  53.1590  10.4533 0001284  84.1622 192.7506 15.74228196  3836
STARLINK-35829          
1 66350U 25254C   25327.50002315 -.00016696  00000+0 -10994-3 0  9998
2 66350  53.1590  10.4489 0001127  87.9226 190.9155 15.74186705  3834
STARLINK-35828          
1 66351U 25254D   25327.50002315 -.00103675  00000+0 -71148-3 0  9991
2 66351  53.1590  10.4447 0001103  83.9574 196.7924 15.74215728  3808
STARLINK-35850          
1 66352U 25254E   25327.50002315 -.00094831  00000+0 -64969-3 0  9998
2 66352  53.1591  10.4405 0001097 105.1074 177.5582 15.74217560  3788
STARLINK-35869          
1 66353U 25254F   25327.50002315 -.00125289  00000+0 -86227-3 0  9992
2 66353  53.1589  10.4366 0000983  80.3533 204.2250 15.74233419  3836
STARLINK-35895          
1 66354U 25254G   25327.50002315 -.00127403  00000+0 -87725-3 0  9997
2 66354  53.1587  10.4320 0001111  81.8914 204.6044 15.74229289  3833
STARLINK-35861          
1 66355U 25254H   25327.50002315 -.00096640  00000+0 -66236-3 0  9990
2 66355  53.1588  10.4285 0001097  93.3057 195.1115 15.74215876  3834
STARLINK-35851          
1 66356U 25254J   25327.50002315 -.00104283  00000+0 -71565-3 0  9995
2 66356  53.1588  10.4242 0001003  84.9012 205.4351 15.74218758  3831
STARLINK-35817          
1 66357U 25254K   25327.50002315 -.00095141  00000+0 -65171-3 0  9994
2 66357  53.1586  10.4202 0001172  85.2901 206.9583 15.74222529  3838
STARLINK-35807          
1 66358U 25254L   25327.50002315 -.00125541  00000+0 -86415-3 0  9997
2 66358  53.1589  10.4160 0001134  82.9075 211.2571 15.74229741  3838
